[
  {
    "OBJECT_NAME": "STARLINK-5825",
    "OBJECT_ID": "2023-028AU",
    "EPOCH": "2025-04-16T22:00:00.999936",
    "MEAN_MOTION": 14.98326231,
    "ECCENTRICITY": 0.0003303,
    "INCLINATION": 69.9999,
    "RA_OF_ASC_NODE": 308.5444,
    "ARG_OF_PERICENTER": 273.4966,
    "MEAN_ANOMALY": 109.4346,
    "EPHEMERIS_TYPE": 0,
    "CLASSIFICATION_TYPE": "U",
    "NORAD_CAT_ID": 55783,
    "ELEMENT_SET_NO": 999,
    "REV_AT_EPOCH": 11807,
    "BSTAR": 0.00070697,
    "MEAN_MOTION_DOT": 8.352e-5,
    "MEAN_MOTION_DDOT": 0
  },
  {
    "OBJECT_NAME": "STARLINK-5797",
    "OBJECT_ID": "2023-028AV",
    "EPOCH": "2025-04-16T19:53:59.312544",
    "MEAN_MOTION": 14.98331485,
    "ECCENTRICITY": 0.0003144,
    "INCLINATION": 69.9974,
    "RA_OF_ASC_NODE": 308.6664,
    "ARG_OF_PERICENTER": 267.3588,
    "MEAN_ANOMALY": 92.7211,
    "EPHEMERIS_TYPE": 0,
    "CLASSIFICATION_TYPE": "U",
    "NORAD_CAT_ID": 55784,
    "ELEMENT_SET_NO": 999,
    "REV_AT_EPOCH": 11806,
    "BSTAR": 0.00010573,
    "MEAN_MOTION_DOT": 1.169e-5,
    "MEAN_MOTION_DDOT": 0
  },
  {
    "OBJECT_NAME": "STARLINK-5818",
    "OBJECT_ID": "2023-028AW",
    "EPOCH": "2025-04-16T21:47:54.065760",
    "MEAN_MOTION": 14.98338744,
    "ECCENTRICITY": 0.0003059,
    "INCLINATION": 69.9979,
    "RA_OF_ASC_NODE": 308.5406,
    "ARG_OF_PERICENTER": 268.4368,
    "MEAN_ANOMALY": 91.6441,
    "EPHEMERIS_TYPE": 0,
    "CLASSIFICATION_TYPE": "U",
    "NORAD_CAT_ID": 55785,
    "ELEMENT_SET_NO": 999,
    "REV_AT_EPOCH": 11807,
    "BSTAR": 0.00012135,
    "MEAN_MOTION_DOT": 1.355e-5,
    "MEAN_MOTION_DDOT": 0
  },
  {
    "OBJECT_NAME": "STARLINK-5823",
    "OBJECT_ID": "2023-028AX",
    "EPOCH": "2025-04-16T19:53:44.684160",
    "MEAN_MOTION": 14.98329465,
    "ECCENTRICITY": 0.0002982,
    "INCLINATION": 69.9978,
    "RA_OF_ASC_NODE": 308.6658,
    "ARG_OF_PERICENTER": 269.6178,
    "MEAN_ANOMALY": 90.4639,
    "EPHEMERIS_TYPE": 0,
    "CLASSIFICATION_TYPE": "U",
    "NORAD_CAT_ID": 55786,
    "ELEMENT_SET_NO": 999,
    "REV_AT_EPOCH": 11806,
    "BSTAR": -6.769e-6,
    "MEAN_MOTION_DOT": -1.74e-6,
    "MEAN_MOTION_DDOT": 0
  },
  {
    "OBJECT_NAME": "STARLINK-5811",
    "OBJECT_ID": "2023-028AY",
    "EPOCH": "2025-04-16T21:41:53.674080",
    "MEAN_MOTION": 14.98334183,
    "ECCENTRICITY": 0.0003055,
    "INCLINATION": 69.9977,
    "RA_OF_ASC_NODE": 308.5265,
    "ARG_OF_PERICENTER": 268.0326,
    "MEAN_ANOMALY": 92.0483,
    "EPHEMERIS_TYPE": 0,
    "CLASSIFICATION_TYPE": "U",
    "NORAD_CAT_ID": 55787,
    "ELEMENT_SET_NO": 999,
    "REV_AT_EPOCH": 11807,
    "BSTAR": 6.0234e-5,
    "MEAN_MOTION_DOT": 6.26e-6,
    "MEAN_MOTION_DDOT": 0
  },
  {
    "OBJECT_NAME": "STARLINK-5804",
    "OBJECT_ID": "2023-028AZ",
    "EPOCH": "2025-04-16T19:59:44.890944",
    "MEAN_MOTION": 14.98334174,
    "ECCENTRICITY": 0.0002982,
    "INCLINATION": 69.9977,
    "RA_OF_ASC_NODE": 308.6797,
    "ARG_OF_PERICENTER": 268.7467,
    "MEAN_ANOMALY": 91.3351,
    "EPHEMERIS_TYPE": 0,
    "CLASSIFICATION_TYPE": "U",
    "NORAD_CAT_ID": 55788,
    "ELEMENT_SET_NO": 999,
    "REV_AT_EPOCH": 11806,
    "BSTAR": 2.8007e-5,
    "MEAN_MOTION_DOT": 2.41e-6,
    "MEAN_MOTION_DDOT": 0
  },
  {
    "OBJECT_NAME": "STARLINK-5815",
    "OBJECT_ID": "2023-028BA",
    "EPOCH": "2025-04-16T22:35:52.997568",
    "MEAN_MOTION": 14.98379679,
    "ECCENTRICITY": 0.0002071,
    "INCLINATION": 69.9988,
    "RA_OF_ASC_NODE": 308.2558,
    "ARG_OF_PERICENTER": 258.4943,
    "MEAN_ANOMALY": 101.5983,
    "EPHEMERIS_TYPE": 0,
    "CLASSIFICATION_TYPE": "U",
    "NORAD_CAT_ID": 55789,
    "ELEMENT_SET_NO": 999,
    "REV_AT_EPOCH": 11808,
    "BSTAR": 0.00041044,
    "MEAN_MOTION_DOT": 4.814e-5,
    "MEAN_MOTION_DDOT": 0
  },
  {
    "OBJECT_NAME": "STARLINK-5813",
    "OBJECT_ID": "2023-028BB",
    "EPOCH": "2025-04-16T22:42:11.920320",
    "MEAN_MOTION": 14.98332755,
    "ECCENTRICITY": 0.0002921,
    "INCLINATION": 69.9982,
    "RA_OF_ASC_NODE": 308.2718,
    "ARG_OF_PERICENTER": 268.3223,
    "MEAN_ANOMALY": 91.7601,
    "EPHEMERIS_TYPE": 0,
    "CLASSIFICATION_TYPE": "U",
    "NORAD_CAT_ID": 55790,
    "ELEMENT_SET_NO": 999,
    "REV_AT_EPOCH": 11808,
    "BSTAR": 3.3233e-5,
    "MEAN_MOTION_DOT": 3.04e-6,
    "MEAN_MOTION_DDOT": 0
  },
  {
    "OBJECT_NAME": "STARLINK-5807",
    "OBJECT_ID": "2023-028BC",
    "EPOCH": "2025-04-16T21:23:51.517536",
    "MEAN_MOTION": 14.98335173,
    "ECCENTRICITY": 0.0002861,
    "INCLINATION": 69.9974,
    "RA_OF_ASC_NODE": 308.4832,
    "ARG_OF_PERICENTER": 268.2351,
    "MEAN_ANOMALY": 91.848,
    "EPHEMERIS_TYPE": 0,
    "CLASSIFICATION_TYPE": "U",
    "NORAD_CAT_ID": 55791,
    "ELEMENT_SET_NO": 999,
    "REV_AT_EPOCH": 11806,
    "BSTAR": -1.6873e-5,
    "MEAN_MOTION_DOT": -2.94e-6,
    "MEAN_MOTION_DDOT": 0
  },
  {
    "OBJECT_NAME": "STARLINK-5856",
    "OBJECT_ID": "2023-037A",
    "EPOCH": "2025-04-16T21:37:33.501216",
    "MEAN_MOTION": 14.98335929,
    "ECCENTRICITY": 0.0002717,
    "INCLINATION": 70.0006,
    "RA_OF_ASC_NODE": 48.5606,
    "ARG_OF_PERICENTER": 266.5591,
    "MEAN_ANOMALY": 93.5257,
    "EPHEMERIS_TYPE": 0,
    "CLASSIFICATION_TYPE": "U",
    "NORAD_CAT_ID": 55914,
    "ELEMENT_SET_NO": 999,
    "REV_AT_EPOCH": 11522,
    "BSTAR": 7.3373e-5,
    "MEAN_MOTION_DOT": 7.83e-6,
    "MEAN_MOTION_DDOT": 0
  },
  {
    "OBJECT_NAME": "STARLINK-5859",
    "OBJECT_ID": "2023-037B",
    "EPOCH": "2025-04-16T19:40:34.841280",
    "MEAN_MOTION": 14.96408767,
    "ECCENTRICITY": 0.0004527,
    "INCLINATION": 70.0016,
    "RA_OF_ASC_NODE": 48.6779,
    "ARG_OF_PERICENTER": 125.37,
    "MEAN_ANOMALY": 234.7881,
    "EPHEMERIS_TYPE": 0,
    "CLASSIFICATION_TYPE": "U",
    "NORAD_CAT_ID": 55915,
    "ELEMENT_SET_NO": 999,
    "REV_AT_EPOCH": 11521,
    "BSTAR": -0.019585,
    "MEAN_MOTION_DOT": -0.00215807,
    "MEAN_MOTION_DDOT": 0
  },
  {
    "OBJECT_NAME": "STARLINK-5796",
    "OBJECT_ID": "2023-037C",
    "EPOCH": "2025-04-16T21:31:33.073248",
    "MEAN_MOTION": 14.98349034,
    "ECCENTRICITY": 0.0002771,
    "INCLINATION": 70.0008,
    "RA_OF_ASC_NODE": 48.5457,
    "ARG_OF_PERICENTER": 264.007,
    "MEAN_ANOMALY": 96.0773,
    "EPHEMERIS_TYPE": 0,
    "CLASSIFICATION_TYPE": "U",
    "NORAD_CAT_ID": 55916,
    "ELEMENT_SET_NO": 999,
    "REV_AT_EPOCH": 11453,
    "BSTAR": 0.0002165,
    "MEAN_MOTION_DOT": 2.492e-5,
    "MEAN_MOTION_DDOT": 0
  },
  {
    "OBJECT_NAME": "STARLINK-5855",
    "OBJECT_ID": "2023-037D",
    "EPOCH": "2025-04-16T20:44:55.977792",
    "MEAN_MOTION": 15.42495521,
    "ECCENTRICITY": 0.0013214,
    "INCLINATION": 69.9868,
    "RA_OF_ASC_NODE": 8.7824,
    "ARG_OF_PERICENTER": 223.1962,
    "MEAN_ANOMALY": 136.8184,
    "EPHEMERIS_TYPE": 0,
    "CLASSIFICATION_TYPE": "U",
    "NORAD_CAT_ID": 55917,
    "ELEMENT_SET_NO": 999,
    "REV_AT_EPOCH": 11552,
    "BSTAR": 0.0039021,
    "MEAN_MOTION_DOT": 0.00173812,
    "MEAN_MOTION_DDOT": 0
  },
  {
    "OBJECT_NAME": "STARLINK-5867",
    "OBJECT_ID": "2023-037E",
    "EPOCH": "2025-04-16T21:25:32.623680",
    "MEAN_MOTION": 14.98327654,
    "ECCENTRICITY": 0.0002677,
    "INCLINATION": 70.0014,
    "RA_OF_ASC_NODE": 48.5315,
    "ARG_OF_PERICENTER": 258.4604,
    "MEAN_ANOMALY": 101.6254,
    "EPHEMERIS_TYPE": 0,
    "CLASSIFICATION_TYPE": "U",
    "NORAD_CAT_ID": 55918,
    "ELEMENT_SET_NO": 999,
    "REV_AT_EPOCH": 11453,
    "BSTAR": 0.00010937,
    "MEAN_MOTION_DOT": 1.212e-5,
    "MEAN_MOTION_DDOT": 0
  }
]
