STARLINK-5825           
1 55783U 23028AU  25106.91667824  .00008352  00000+0  70697-3 0  9999
2 55783  69.9999 308.5444 0003303 273.4966 109.4346 14.98326231118078
STARLINK-5797           
1 55784U 23028AV  25106.82915871  .00001169  00000+0  10573-3 0  9994
2 55784  69.9974 308.6664 0003144 267.3588  92.7211 14.98331485118063
STARLINK-5818           
1 55785U 23028AW  25106.90826465  .00001355  00000+0  12135-3 0  9997
2 55785  69.9979 308.5406 0003059 268.4368  91.6441 14.98338744118074
STARLINK-5823           
1 55786U 23028AX  25106.82898940 -.00000174  00000+0 -67690-5 0  9994
2 55786  69.9978 308.6658 0002982 269.6178  90.4639 14.98329465118065
STARLINK-5811           
1 55787U 23028AY  25106.90409345  .00000626  00000+0  60234-4 0  9997
2 55787  69.9977 308.5265 0003055 268.0326  92.0483 14.98334183118077
STARLINK-5804           
1 55788U 23028AZ  25106.83315846  .00000241  00000+0  28007-4 0  9997
2 55788  69.9977 308.6797 0002982 268.7467  91.3351 14.98334174118065
STARLINK-5815           
1 55789U 23028BA  25106.94158562  .00004814  00000+0  41044-3 0  9995
2 55789  69.9988 308.2558 0002071 258.4943 101.5983 14.98379679118089
STARLINK-5813           
1 55790U 23028BB  25106.94597130  .00000304  00000+0  33233-4 0  9997
2 55790  69.9982 308.2718 0002921 268.3223  91.7601 14.98332755118089
STARLINK-5807           
1 55791U 23028BC  25106.89156849 -.00000294  00000+0 -16873-4 0  9991
2 55791  69.9974 308.4832 0002861 268.2351  91.8480 14.98335173118065
STARLINK-5856           
1 55914U 23037A   25106.90108219  .00000783  00000+0  73373-4 0  9997
2 55914  70.0006  48.5606 0002717 266.5591  93.5257 14.98335929115224
STARLINK-5859           
1 55915U 23037B   25106.81984770 -.00215807  00000+0 -19585-1 0  9991
2 55915  70.0016  48.6779 0004527 125.3700 234.7881 14.96408767115213
STARLINK-5796           
1 55916U 23037C   25106.89691057  .00002492  00000+0  21650-3 0  9993
2 55916  70.0008  48.5457 0002771 264.0070  96.0773 14.98349034114533
STARLINK-5855           
1 55917U 23037D   25106.86453678  .00173812  00000+0  39021-2 0  9991
2 55917  69.9868   8.7824 0013214 223.1962 136.8184 15.42495521115523
STARLINK-5867           
1 55918U 23037E   25106.89273870  .00001212  00000+0  10937-3 0  9999
2 55918  70.0014  48.5315 0002677 258.4604 101.6254 14.98327654114531
